#dP2023  9  8  0  0  0.00000000      96 __u+U ITR00 FIT  IAC
## 2278 432000.00000000   900.00000000 60195 0.0000000000000
+  119   C06C07C08C09C10C11C12C13C14C16C19C20C21C22C23C24C25
+        C26C27C28C29C30C32C33C34C35C36C37C38C39C40C41C42C43
+        C44C45C46E02E03E04E05E07E08E09E10E11E12E13E14E15E18
+        E19E21E24E25E26E27E30E31E33E34E36G01G02G03G04G05G06
+        G07G08G09G10G11G12G13G14G15G16G17G18G19G20G21G22G23
+        G24G25G26G27G28G29G30G31G32J02J03J04R01R02R03R04R05
+        R07R08R09R11R12R13R14R15R16R17R18R19R20R21R22R24R25
++         8  8  9  7  8  7  8  9  8  8  7  5  6  6  7  7  6
++         6  5  7  6  7  6  7  7  7  6  7  7  7  8  7  8  5
++         7  7  6  7  7  5  7  6  7  8  6  6  6  7  7  5  6
++         5  5  7  7  7  5  6  6  7  6  6  6  0  6  6  6  6
++         6  6  6  5  6  6  6  7  7  5  7  6  7  5  6  6  5
++         8  6  5  6  6  5  7  6  5  5  8  8  7  6  8  6  7
++         6  7  6  6  7  6  5  6  6  6  6  6  7  5  6  7  0
%c M  cc GPS ccc cccc cccc cccc cccc ccccc ccccc ccccc ccccc
%c cc cc ccc ccc cccc cccc cccc cccc ccccc ccccc ccccc ccccc
%f  0.0000000  0.000000000  0.00000000000  0.000000000000000
%f  0.0000000  0.000000000  0.00000000000  0.000000000000000
%i    0    0    0    0      0      0      0      0         0
%i    0    0    0    0      0      0      0      0         0
/* INFORMATION & ANALYSIS CENTER (IAC)      ULTRA-RAPID DATA
/* S/V CLOCKS ARE ALIGNED TO GNSS TIME                      
/* G:C1WC2W R:C1PC2P E:C1XC5X C:C2IC6I J:C1CC2S             
/* PCV:IGS20_2274 OL/AL:FES2004  NONE     YN ORB:CoN CLK:CoN
*  2023 09 08 11 30  0.00000000
PC06  -8137.469828  23360.521061  34161.153293     28.481332
PC07 -16700.881342  37764.327137  -8963.440588    -55.274391
PC08   -659.552490  35398.860355 -22744.971086    354.860368
PC09    897.368183  25396.598029  34137.970925    192.076881
PC10 -10749.883103  38175.531252 -14758.036247   -171.564056
PC11 -27431.133650   3160.289835  -4082.182563    821.348407
PC12 -22903.650198  -8376.075656  13622.734894    940.826394
PC13   4101.300720  38241.751479 -16798.236567    348.303108
PC14 -18878.317115  10448.508166 -17722.372889    369.184143
PC16 -12744.930039  21555.505888  34129.448695    -70.835316
PC19  17625.791218 -18916.026898  10488.130261   -970.513836
PC20  17517.055671  -2043.918293  21620.824609    299.759571
PC21  -6774.219737 -17528.279551 -20618.429149   -965.339426
PC22   7586.260812 -25816.091565  -7363.315409   -316.422190
PC23    471.684187  22552.958695  16435.199577   -878.351977
PC24 -20450.786773 -10880.650551  15572.607852    370.364383
PC25 -13328.630365   9382.580427  22643.924672    206.788064
PC26 -15905.555065 -22950.670395    291.798133   -174.740018
PC27  15906.517865  12682.003254 -19122.418351    196.202669
PC28  -3219.502452  15947.264512 -22668.792040    147.103303
PC29  22723.240138 -10491.887462  12331.385517    171.753252
PC30  27280.738381   1770.800002  -5644.848090     -4.617415
PC32   6823.882723  17602.822446  20559.601036   -529.161045
PC33 -17550.276761  18965.891344 -10563.352247   -959.828840
PC34 -27556.124249   -842.765369   4270.893652    254.933147
PC35   2808.621243 -16133.913536  22588.380371    550.881527
PC36  14035.076867  -8288.529294 -22622.998977   -236.232875
PC37  14868.971429  23593.133246    546.236754   -822.995551
PC38  -6986.519814  30919.884002 -27686.335163    103.435026
PC39 -18338.812832  20029.398364  32232.899597     -4.691832
PC40 -24092.538754  33984.718344  -7354.448665    -35.761688
PC41  -7975.335221  25905.033021   6701.623237   -880.224715
PC42 -17095.954225    509.904274 -22021.104497   -553.332497
PC43 -23305.033650  10067.806989 -11580.954280     38.831184
PC44 -16186.470730 -12262.235316  19118.949834    225.051499
PC45  -1003.563461 -22773.026887 -16108.509747    -23.231324
PC46  20270.448548   9674.110548 -16533.004771    -82.690222
PE02 -16453.007293   5682.457382  23942.774901     61.119587
PE03 -26911.686863  10137.918686  -7047.905452    -53.880348
PE04  18520.996312 -20125.304825 -11315.201163   -207.457867
PE05 -19651.215372  -5793.839323 -21367.287856     16.455746
PE07    478.535519  18507.717770  23097.978950    -73.306241
PE08 -18894.279557  19984.341299  10957.510726   -142.988051
PE09   -294.799920 -18439.266591 -23153.133909   -149.071195
PE10   -939.484613 -17878.339239  23566.328766   -562.187730
PE11 -11902.139277 -20163.562122  18095.279105   2889.424675
PE12   9258.405397 -13197.833567  24819.037194   -689.525068
PE13  11242.966307  20060.007273 -18634.876179    -19.591055
PE14 -16909.723934  -8695.874612  18168.091296    334.432997
PE15  -9625.251887  12889.848692 -24844.405868    -51.578197
PE18   8073.079831  17823.239168 -23261.425835    506.957602
PE19  26859.215126  -8175.895754   9380.103284  -1675.538537
PE21  14330.991985  15563.587650 -20696.466794   -551.406517
PE24  -3307.039938 -29046.241902   4699.712368   -310.195468
PE25 -14213.210865 -15920.485503  20522.781569     -1.502419
PE26  25468.744983  15044.571919   -892.637977    216.413851
PE27   3785.630934  28875.164158  -5271.019420   -144.786572
PE30  -9214.104089  24727.599774  13397.152668   -483.330245
PE31   8852.026010 -25039.742918 -13058.331807     -4.591173
PE33  24821.007374   2210.575882  15961.958379     -0.728322
PE34 -24573.068821  -1670.083225 -16438.712771    -65.924591
PE36 -25234.671345 -15391.353990   1609.605384   -113.061939
PG01  21945.999919  15176.396050  -2181.205945    166.024833
PG02      0.000000      0.000000      0.000000 999999.999999
PG03  12285.645386  14378.878324  18547.254735   -146.336120
PG04  18660.520005   4680.257656  18371.792377    149.848881
PG05  -5831.605362 -24918.386232  -7095.551363   -141.917282
PG06   9216.322590 -11458.258899  22185.951761    553.853415
PG07  23273.758696   3592.123899 -12265.863848     73.060441
PG08   9609.462820  12064.421297 -21716.625614   -141.201114
PG09  23279.726306  -3912.620684  12135.459330    -65.342756
PG10 -11024.668435  17557.763063 -16231.067770    -52.547466
PG11  -4594.872626 -18421.884451  18606.320623   -358.722858
PG12  -9805.503977 -18444.049559  16177.358142   -422.359306
PG13    356.786815 -15905.576300 -21426.372214    570.015809
PG14  13409.643473 -14227.461635 -17879.266437    178.655462
PG15 -11921.021427 -10960.455368 -21553.158632     75.510803
PG16   -332.404280  26154.833564  -3167.764615   -457.158571
PG17  22368.209653 -13962.950194   4076.233490    723.595858
PG18 -21998.633002  -1626.297203 -14919.308500   -410.334055
PG19  17792.298029 -15919.457038  11065.747878    368.668328
PG20   -696.128043 -26196.874507   4941.021602    412.965711
PG21  18078.716359  16730.425522 -10502.960059    149.310545
PG22  10630.864611 -20946.897708 -12193.836039    125.876041
PG23 -14613.534103   4531.258098 -21686.640818     65.565451
PG24 -20637.451881 -15645.813694  -7194.470335   -313.534610
PG25 -15098.816941  -4116.236968  21172.319401    466.644954
PG26  -4738.347455  24502.784532   8440.095151    229.485717
PG27  -3495.375044  17640.265346 -19658.639433    -35.992402
PG28 -11037.023336  11041.347082  21466.809327     -7.038074
PG29 -23639.952171   2108.576657  11985.290733   -609.044333
PG30  17791.152938  -5580.383071 -18887.796542   -489.622817
PG31  -1226.143338  16392.395757  20589.234571   -223.075626
PG32 -19180.696601  16837.159178   7135.619811   -554.513453
PJ02 -29134.116387  25384.170881  21957.458214     -3.695387
PJ03 -30120.877246  15734.242958 -20362.872522     -2.353775
PJ04 -22628.196912  34365.507594  -4147.164273     70.559655
PR01 -17120.208359  11201.595075 -15246.269371     65.203525
PR02 -14896.041086  20568.645978   2000.040270    -22.435381
PR03  -3551.765353  18197.167110  17527.375227     84.838586
PR04   9127.693993   5775.082949  23131.156578    201.971950
PR05  17161.800044  -9661.529424  16232.332731    118.684543
PR07   3051.695171 -17844.980895 -17961.491831     64.204805
PR08  -9332.680893  -5638.154499 -23006.584308    -72.454101
PR09   3031.235357 -16471.229835 -19186.662758    141.129860
PR11 -13658.691799 -18563.194795  10927.200227   -156.553985
PR12 -12098.720078   -947.163893  22467.876714     31.057658
PR13  -4261.740904  14739.781047  20368.994829    -38.987286
PR14   7533.653280  23840.350658   5128.575346     25.241218
PR15  13762.231470  17779.961894 -12030.327852     86.370182
PR16  12068.690847   1278.863714 -22426.168533     18.487021
PR17   6608.535442  11027.636478 -22013.314384     15.606941
PR18  21247.587583   8337.499829 -11414.481879    100.886254
PR19  25088.166343   2855.377604   3566.190556   -246.460859
PR20  13522.770594  -6835.261613  20536.896142    -99.666065
PR21  -7696.574578 -11005.019054  21694.533477    -36.466232
PR22 -21475.425568  -8909.690273  10512.895494     83.159963
PR24 -12746.045714   7958.521278 -20603.221603    -23.554124
PR25  -6096.425488 -11611.470557  21888.698440 999999.999999
EOF
